H1 CPF 01  gfz 2021 07 05 00  6861 terrasarx 
H2 0702601  6201 31698    2021 07 05 00 59 42 2021 07 10 00 00 42   120 1 1  0 0 0
H9
10 0 59400  20142.000000  0   -5617357.024  -1136491.197  -3830174.386
10 0 59400  20262.000000  0   -6094378.832  -1033248.321  -3049379.245
10 0 59400  20382.000000  0   -6463158.444   -904595.107  -2215061.659
10 0 59400  20502.000000  0   -6716750.362   -754713.234  -1341828.469
10 0 59400  20622.000000  0   -6850301.174   -588265.273   -445002.726
10 0 59400  20742.000000  0   -6861152.554   -410275.143    459651.130
10 0 59400  20862.000000  0   -6748899.976   -226000.193   1356211.091
10 0 59400  20982.000000  0   -6515407.649    -40798.683   2228886.591
10 0 59400  21102.000000  0   -6164776.869    140005.033   3062305.876
10 0 59400  21222.000000  0   -5703268.972    311254.027   3841795.085
10 0 59400  21342.000000  0   -5139184.841    468087.279   4553642.116
10 0 59400  21462.000000  0   -4482705.318    606059.566   5185339.978
10 0 59400  21582.000000  0   -3745697.208    721250.597   5725804.890
10 0 59400  21702.000000  0   -2941489.965    810360.588   6165567.699
10 0 59400  21822.000000  0   -2084626.767    870789.759   6496935.081
10 0 59400  21942.000000  0   -1190595.392    900701.698   6714118.673
10 0 59400  22062.000000  0    -275544.661    899068.447   6813329.086
10 0 59400  22182.000000  0     644007.210    865696.470   6792837.018
10 0 59400  22302.000000  0    1551469.524    801233.588   6653001.282
10 0 59400  22422.000000  0    2430477.156    707156.896   6396263.051
10 0 59400  22542.000000  0    3265185.090    585741.385   6027106.625
10 0 59400  22662.000000  0    4040556.150    440009.764   5551986.142
10 0 59400  22782.000000  0    4742635.340    273664.487   4979218.387
10 0 59400  22902.000000  0    5358806.707     91002.233   4318843.519
10 0 59400  23022.000000  0    5878028.981   -103186.441   3582454.411
10 0 59400  23142.000000  0    6291044.093   -303729.745   2782995.531
10 0 59400  23262.000000  0    6590552.609   -505198.276   1934534.010
10 0 59400  23382.000000  0    6771350.384   -702037.557   1052008.834
10 0 59400  23502.000000  0    6830426.370   -888704.387    150962.614
10 0 59400  23622.000000  0    6767017.115  -1059804.301   -752740.909
10 0 59400  23742.000000  0    6582613.668  -1210227.040  -1643205.694
10 0 59400  23862.000000  0    6280923.730  -1335275.719  -2504791.271
10 0 59400  23982.000000  0    5867789.056  -1430786.847  -3322393.748
10 0 59400  24102.000000  0    5351061.915  -1493238.151  -4081713.638
10 0 59400  24222.000000  0    4740444.092  -1519841.153  -4769505.400
10 0 59400  24342.000000  0    4047293.559  -1508617.142  -5373804.459
10 0 59400  24462.000000  0    3284402.799  -1458455.719  -5884128.217
10 0 59400  24582.000000  0    2465755.027  -1369153.847  -6291647.252
10 0 59400  24702.000000  0    1606264.800  -1241434.532  -6589327.127
10 0 59400  24822.000000  0     721505.781  -1076946.019  -6772039.215
10 0 59400  24942.000000  0    -172568.282   -878242.260  -6836639.694
10 0 59400  25062.000000  0   -1059905.572   -648743.665  -6782017.311
10 0 59400  25182.000000  0   -1924637.605   -392679.538  -6609110.831
10 0 59400  25302.000000  0   -2751356.937   -115011.997  -6320893.790
10 0 59400  25422.000000  0   -3525385.166    178656.365  -5922328.318
10 0 59400  25542.000000  0   -4233030.746    482190.903  -5420289.991
10 0 59400  25662.000000  0   -4861832.578    789047.316  -4823459.744
10 0 59400  25782.000000  0   -5400784.364   1092406.157  -4142186.410
10 0 59400  25902.000000  0   -5840536.801   1385318.840  -3388317.768
10 0 59400  26022.000000  0   -6173570.603   1660860.282  -2575002.095
10 0 59400  26142.000000  0   -6394337.320   1912285.021  -1716463.425
10 0 59400  26262.000000  0   -6499364.302   2133183.940   -827753.674
10 0 59400  26382.000000  0   -6487319.590   2317637.126     75515.204
10 0 59400  26502.000000  0   -6359033.555   2460358.473    977452.526
10 0 59400  26622.000000  0   -6117476.769   2556829.195   1862176.548
10 0 59400  26742.000000  0   -5767694.594   2603416.472   2714103.477
10 0 59400  26862.000000  0   -5316699.872   2597473.273   3518230.202
10 0 59400  26982.000000  0   -4773326.829   2537416.787   4260405.651
10 0 59400  27102.000000  0   -4148049.558   2422784.037   4927582.906
10 0 59400  27222.000000  0   -3452772.166   2254263.961   5508048.437
10 0 59400  27342.000000  0   -2700594.686   2033705.697   5991626.056
10 0 59400  27462.000000  0   -1905558.471   1764102.272   6369851.550
10 0 59400  27582.000000  0   -1082378.170   1449549.929   6636114.782
10 0 59400  27702.000000  0    -246166.381   1095184.670   6785767.677
10 0 59400  27822.000000  0     587843.453    707097.363   6816199.644
10 0 59400  27942.000000  0    1404573.551    292228.815   6726880.099
10 0 59400  28062.000000  0    2189372.970   -141753.638   6519367.141
10 0 59400  28182.000000  0    2928279.614   -586597.061   6197283.173
10 0 59400  28302.000000  0    3608270.015  -1033618.684   5766256.298
10 0 59400  28422.000000  0    4217492.435  -1473874.112   5233827.413
10 0 59400  28542.000000  0    4745477.856  -1898335.692   4609323.896
10 0 59400  28662.000000  0    5183326.776  -2298076.734   3903702.453
10 0 59400  28782.000000  0    5523868.551  -2664459.037   3129360.581
10 0 59400  28902.000000  0    5761786.620  -2989318.958   2299918.309
10 0 59400  29022.000000  0    5893707.010  -3265147.267   1429976.809
10 0 59400  29142.000000  0    5918250.043  -3485259.589    534856.923
10 0 59400  29262.000000  0    5836040.650  -3643951.336   -369678.509
10 0 59400  29382.000000  0    5649679.199  -3736634.186  -1267710.757
10 0 59400  29502.000000  0    5363670.830  -3759949.150  -2143455.140
10 0 59400  29622.000000  0    4984317.171  -3711854.321  -2981545.262
10 0 59400  29742.000000  0    4519573.719  -3591686.119  -3767307.455
10 0 59400  29862.000000  0    3978876.203  -3400191.845  -4487019.036
10 0 59400  29982.000000  0    3372941.335  -3139533.457  -5128145.691
10 0 59400  30102.000000  0    2713547.218  -2813262.426  -5679553.043
10 0 59400  30222.000000  0    2013300.185  -2426268.944  -6131689.731
10 0 59400  30342.000000  0    1285392.518  -1984706.466  -6476743.176
10 0 59400  30462.000000  0     543353.446  -1495890.404  -6708764.875
10 0 59400  30582.000000  0    -199199.913   -968175.465  -6823762.041
10 0 59400  30702.000000  0    -928807.384   -410814.193  -6819757.983
10 0 59400  30822.000000  0   -1632403.777    166201.778  -6696822.189
10 0 59400  30942.000000  0   -2297547.650    752316.497  -6457068.545
10 0 59400  31062.000000  0   -2912636.154   1336597.613  -6104622.793
10 0 59400  31182.000000  0   -3467104.238   1907935.218  -5645559.659
10 0 59400  31302.000000  0   -3951607.075   2455249.259  -5087809.870
10 0 59400  31422.000000  0   -4358182.167   2967702.961  -4441034.445
10 0 59400  31542.000000  0   -4680385.994   3434917.135  -3716467.074
10 0 59400  31662.000000  0   -4913403.043   3847181.685  -2926728.749
10 0 59400  31782.000000  0   -5054125.485   4195660.200  -2085614.060
10 0 59400  31902.000000  0   -5101199.976   4472581.582  -1207852.968
10 0 59400  32022.000000  0   -5055040.983   4671414.997   -308851.604
10 0 59400  32142.000000  0   -4917808.120   4787022.935    595583.416
10 0 59400  32262.000000  0   -4693347.710   4815787.381   1489531.314
10 0 59400  32382.000000  0   -4387099.710   4755704.689   2357247.253
10 0 59400  32502.000000  0   -4005971.305   4606448.063   3183448.614
10 0 59400  32622.000000  0   -3558182.017   4369395.799   3953591.027
10 0 59400  32742.000000  0   -3053085.084   4047624.778   4654128.877
10 0 59400  32862.000000  0   -2500969.095   3645869.953   5272756.024
10 0 59400  32982.000000  0   -1912844.038   3170450.167   5798621.254
10 0 59400  33102.000000  0   -1300217.662   2629163.044   6222514.837
10 0 59400  33222.000000  0    -674867.114   2031151.063   6537023.451
10 0 59400  33342.000000  0     -48612.584   1386743.365   6736652.455
10 0 59400  33462.000000  0     566905.833    707275.066   6817917.075
10 0 59400  33582.000000  0    1160443.911      4887.331   6779398.561
10 0 59400  33702.000000  0    1721357.454   -707688.555   6621767.848
10 0 59400  33822.000000  0    2239792.636  -1417361.523   6347775.110
10 0 59400  33942.000000  0    2706859.486  -2110920.241   5962205.460
10 0 59400  34062.000000  0    3114786.789  -2775279.794   5471800.921
10 0 59400  34182.000000  0    3457054.212  -3397730.169   4885148.129
10 0 59400  34302.000000  0    3728500.075  -3966182.786   4212533.993
10 0 59400  34422.000000  0    3925403.107  -4469410.174   3465769.559
10 0 59400  34542.000000  0    4045534.791  -4897273.516   2657984.326
10 0 59400  34662.000000  0    4088181.982  -5240932.751   1803394.482
10 0 59400  34782.000000  0    4054138.516  -5493033.566    917048.569
10 0 59400  34902.000000  0    3945665.275  -5647866.014     14555.847
10 0 59400  35022.000000  0    3766421.148  -5701491.565   -888195.536
10 0 59400  35142.000000  0    3521365.030  -5651835.854  -1775328.005
10 0 59400  35262.000000  0    3216631.127  -5498742.057  -2631261.785
10 0 59400  35382.000000  0    2859382.815  -5243986.465  -3440994.844
10 0 59400  35502.000000  0    2457646.816  -4891254.461  -4190369.663
10 0 59400  35622.000000  0    2020133.003  -4446078.820  -4866319.966
10 0 59400  35742.000000  0    1556045.732  -3915742.644  -5457093.362
10 0 59400  35862.000000  0    1074891.635  -3309150.704  -5952447.099
10 0 59400  35982.000000  0     586286.399  -2636672.970  -6343815.309
10 0 59400  36102.000000  0      99764.682  -1909962.765  -6624446.186
10 0 59400  36222.000000  0    -375402.306  -1141752.777  -6789507.635
10 0 59400  36342.000000  0    -830378.461   -345633.209  -6836161.690
10 0 59400  36462.000000  0   -1256922.593    464184.540  -6763607.385
10 0 59400  36582.000000  0   -1647534.312   1273114.965  -6573092.318
99
